[{"OBJECT_NAME":"STARLINK-1443","OBJECT_ID":"2020-035D","EPOCH":"2026-03-09T23:27:23.665536","MEAN_MOTION":15.25229052,"ECCENTRICITY":0.00031812,"INCLINATION":53.14,"RA_OF_ASC_NODE":63.586,"ARG_OF_PERICENTER":47.856,"MEAN_ANOMALY":312.2708,"EPHEMERIS_TYPE":0,"CLASSIFICATION_TYPE":"U","NORAD_CAT_ID":45660,"ELEMENT_SET_NO":999,"REV_AT_EPOCH":31880,"BSTAR":0.001163622,"MEAN_MOTION_DOT":0.00029398,"MEAN_MOTION_DDOT":0},{"OBJECT_NAME":"BOTSAT-1","OBJECT_ID":"2025-052G","EPOCH":"2026-03-09T23:13:47.101728","MEAN_MOTION":15.25344695,"ECCENTRICITY":0.00042577,"INCLINATION":97.3996,"RA_OF_ASC_NODE":323.8586,"ARG_OF_PERICENTER":100.6807,"MEAN_ANOMALY":259.491,"EPHEMERIS_TYPE":0,"CLASSIFICATION_TYPE":"U","NORAD_CAT_ID":63216,"ELEMENT_SET_NO":999,"REV_AT_EPOCH":5482,"BSTAR":0.00045821867,"MEAN_MOTION_DOT":0.00011491,"MEAN_MOTION_DDOT":0}]
