STARLINK-1443           
1 45660U 20035D   26068.97735723  .00029398  00000+0  11636-2 0  9995
2 45660  53.1400  63.5860 0003181  47.8560 312.2708 15.25229052318803
BOTSAT-1                
1 63216U 25052G   26068.96790626  .00011491  00000+0  45822-3 0  9998
2 63216  97.3996 323.8586 0004258 100.6807 259.4910 15.25344695 54822
